{"spkid": "50394095", "covariance": {"epoch": "2456604.5", "data": [["3.612264611470294E-11", "-6.472763019176132E-11", "7.635766864424629E-9", "2.592300178074025E-10", "6.278249218198799E-9", "3.168878664791991E-10"], ["-6.472763019176132E-11", "1.159844918127618E-10", "-1.368237620758922E-8", "-4.645149453466125E-10", "-1.124988196132613E-8", "-5.678192156910967E-10"], ["7.635766864424629E-9", "-1.368237620758922E-8", "1.617149018520298E-6", "5.47612430453571E-8", "1.328510621205552E-6", "6.725039160954983E-8"], ["2.592300178074025E-10", "-4.645149453466125E-10", "5.47612430453571E-8", "1.556010760215489E-8", "3.139646224835048E-8", "8.816916170320661E-10"], ["6.278249218198799E-9", "-1.124988196132613E-8", "1.328510621205552E-6", "3.139646224835048E-8", "1.105428485581498E-6", "5.657704952162006E-8"], ["3.168878664791991E-10", "-5.678192156910967E-10", "6.725039160954983E-8", "8.816916170320661E-10", "5.657704952162006E-8", "3.025718070230599E-9"]], "elements": [{"name": "e", "sigma": 6.01021181945387e-06, "title": "eccentricity", "value": ".5859026849761049", "units": null, "label": "e"}, {"sigma": 1.07696096406862e-05, "name": "q", "title": "perihelion distance", "value": ".7055057792393571", "units": "au", "label": "q"}, {"label": "tp", "title": "time of perihelion passage", "value": "2456751.385669281983", "units": "TDB", "name": "tp", "sigma": 0.0012716717416536}, {"name": "om", "sigma": 0.000124740160342028, "title": "longitude of the ascending node", "value": "226.4934498255307", "units": "deg", "label": "node"}, {"units": "deg", "title": "argument of perihelion", "value": "63.63159510850932", "sigma": 0.00105139359213451, "name": "w", "label": "peri"}, {"units": "deg", "title": "inclination", "value": "5.220138698135258", "sigma": 5.50065275238367e-05, "name": "i", "label": "i"}], "labels": ["e", "q", "tp", "node", "peri", "i"]}, "elements": [{"label": "e", "units": null, "value": ".5852628241987338", "title": "eccentricity", "name": "e", "sigma": "6.0523E-6"}, {"name": "a", "sigma": "8.3655E-7", "title": "semi-major axis", "value": "1.704148552519254", "units": "au", "label": "a"}, {"units": "au", "title": "perihelion distance", "value": ".7067737578176511", "sigma": "1.0661E-5", "name": "q", "label": "q"}, {"sigma": "5.4736E-5", "name": "i", "title": "inclination; angle with respect to x-y ecliptic plane", "value": "5.213767056922687", "units": "deg", "label": "i"}, {"sigma": ".00012276", "name": "om", "value": "226.2950719803405", "title": "longitude of the ascending node", "units": "deg", "label": "node"}, {"label": "peri", "units": "deg", "title": "argument of perihelion", "value": "63.8583580772376", "name": "w", "sigma": ".0010574"}, {"sigma": ".001549", "name": "ma", "units": "deg", "title": "mean anomaly", "value": "171.0019189060871", "label": "M"}, {"label": "tp", "name": "tp", "sigma": ".0032121", "units": "TDB", "title": "time of perihelion passage", "value": "2460814.525969509571"}, {"label": "period", "name": "per", "sigma": ".00059832", "title": "sidereal orbital period", "value": "812.5677879256134", "units": "d"}, {"label": "n", "units": "deg/d", "title": "mean motion", "value": ".4430399596802085", "name": "n", "sigma": "3.2623E-7"}, {"title": "aphelion distance", "value": "2.701523347220856", "units": "au", "name": "ad", "sigma": "1.3261E-6", "label": "Q"}], "epoch": "2461200.5"}